NORAD_CAT_ID,OBJECT_NAME,OBJECT_TYPE,EPOCH,MEAN_MOTION,ECCENTRICITY,INCLINATION,RA_OF_ASC_NODE,ARG_OF_PERICENTER,MEAN_ANOMALY,BSTAR,MEAN_MOTION_DOT,MEAN_MOTION_DDOT,TLE_LINE0,TLE_LINE1,TLE_LINE2,SEMIMAJOR_AXIS,PERIOD,APOGEE,PERIGEE,DECAYED
51886.0,STARLINK-3565,PAYLOAD,2023-05-13 05:07:04,15.08843976,0.0001209,53.2161,309.5965,85.6297,274.4833,0.00016758,2.38e-05,0.0,0 STARLINK-3565,1 51886U 22022AL  23133.21325179  .00002380  00000-0  16758-3 0  9991,2 51886  53.2161 309.5965 0001209  85.6297 274.4833 15.08843976 67537,6917.868,95.437,540.57,538.897,0.0
51886.0,STARLINK-3565,PAYLOAD,2023-05-13 17:50:10,15.08844551,0.0001142,53.2166,307.2178,83.3399,276.7723,0.00018903,2.722e-05,0.0,0 STARLINK-3565,1 51886U 22022AL  23133.74317191  .00002722  00000-0  18903-3 0  9998,2 51886  53.2166 307.2178 0001142  83.3399 276.7723 15.08844551 67619,6917.866,95.437,540.521,538.941,0.0
51886.0,STARLINK-3565,PAYLOAD,2023-05-14 04:57:51,15.08840205,1.95e-05,53.2168,305.1368,115.5449,244.5563,5.4721e-05,5.84e-06,0.0,0 STARLINK-3565,1 51886U 22022AL  23134.20684940  .00000584  00000-0  54721-4 0  9992,2 51886  53.2168 305.1368 0000195 115.5449 244.5563 15.08840205 67684,6917.88,95.438,539.88,539.61,0.0
51886.0,STARLINK-3565,PAYLOAD,2023-05-14 14:30:11,15.08833604,0.0001018,53.2165,303.3543,74.0811,286.0293,-5.4986e-06,-3.75e-06,0.0,0 STARLINK-3565,1 51886U 22022AL  23134.60429739 -.00000375  00000-0 -54986-5 0  9993,2 51886  53.2165 303.3543 0001018  74.0811 286.0293 15.08833604 67746,6917.9,95.438,540.469,539.061,0.0
51886.0,STARLINK-3565,PAYLOAD,2023-05-14 17:40:57,15.08842106,0.0001295,53.216,302.7563,94.6341,265.4799,8.0711e-05,9.97e-06,0.0,0 STARLINK-3565,1 51886U 22022AL  23134.73677239  .00000997  00000-0  80711-4 0  9999,2 51886  53.2160 302.7563 0001295  94.6341 265.4799 15.08842106 67760,6917.874,95.437,540.635,538.843,0.0
51886.0,STARLINK-3565,PAYLOAD,2023-05-15 11:10:11,15.08837246,0.0001324,53.2156,299.485,95.3953,264.719,3.6852e-05,2.99e-06,0.0,0 STARLINK-3565,1 51886U 22022AL  23135.46541569  .00000299  00000-0  36852-4 0  9998,2 51886  53.2156 299.4850 0001324  95.3953 264.7190 15.08837246 67874,6917.889,95.438,540.67,538.838,0.0
51886.0,STARLINK-3565,PAYLOAD,2023-05-15 14:20:58,15.08837805,0.0001297,53.2157,298.8908,95.4103,264.7037,6.2187e-05,7.02e-06,0.0,0 STARLINK-3565,1 51886U 22022AL  23135.59789581  .00000702  00000-0  62187-4 0  9999,2 51886  53.2157 298.8908 0001297  95.4103 264.7037 15.08837805 67892,6917.887,95.438,540.649,538.855,0.0
51886.0,STARLINK-3565,PAYLOAD,2023-05-15 17:31:44,15.08835163,0.0001161,53.2159,298.2981,87.2529,272.8596,3.56e-05,2.79e-06,0.0,0 STARLINK-3565,1 51886U 22022AL  23135.73037819  .00000279  00000-0  35600-4 0  9994,2 51886  53.2159 298.2981 0001161  87.2529 272.8596 15.08835163 67918,6917.895,95.438,540.563,538.957,0.0
51886.0,STARLINK-3565,PAYLOAD,2023-05-16 11:00:58,15.08844166,0.0001928,53.216,295.0281,68.397,291.7228,-6.5847e-05,-1.336e-05,0.0,0 STARLINK-3565,1 51886U 22022AL  23136.45901596 -.00001336  00000-0 -65847-4 0  9999,2 51886  53.2160 295.0281 0001928  68.3970 291.7228 15.08844166 68027,6917.868,95.437,541.066,538.399,0.0
51886.0,STARLINK-3565,PAYLOAD,2023-05-16 17:22:31,15.08841504,0.0001189,53.2162,293.8373,83.563,276.5498,0.00016956,2.412e-05,0.0,0 STARLINK-3565,1 51886U 22022AL  23136.72397688  .00002412  00000-0  16956-3 0  9990,2 51886  53.2162 293.8373 0001189  83.5630 276.5498 15.08841504 68065,6917.876,95.437,540.563,538.918,0.0
51886.0,STARLINK-3565,PAYLOAD,2023-05-17 09:16:23,15.0883728,0.0001201,53.2157,290.8633,80.8554,279.2574,8.8726e-05,1.124e-05,0.0,0 STARLINK-3565,1 51886U 22022AL  23137.38637951  .00001124  00000-0  88726-4 0  9997,2 51886  53.2157 290.8633 0001201  80.8554 279.2574 15.08837280 68167,6917.889,95.438,540.585,538.923,0.0
51886.0,STARLINK-3565,PAYLOAD,2023-05-17 17:13:18,15.08841091,0.0001121,53.2163,289.3774,86.3253,273.7867,0.00010978,1.46e-05,0.0,0 STARLINK-3565,1 51886U 22022AL  23137.71757729  .00001460  00000-0  10978-3 0  9996,2 51886  53.2163 289.3774 0001121  86.3253 273.7867 15.08841091 68216,6917.877,95.437,540.518,538.967,0.0
51886.0,STARLINK-3565,PAYLOAD,2023-05-18 02:45:38,15.08823748,0.0001205,53.2168,287.5945,97.76,262.3529,0.00027997,4.169e-05,0.0,0 STARLINK-3565,1 51886U 22022AL  23138.11502792  .00004169  00000-0  27997-3 0  9997,2 51886  53.2168 287.5945 0001205  97.7600 262.3529 15.08823748 68270,6917.93,95.439,540.629,538.961,0.0
51886.0,STARLINK-3565,PAYLOAD,2023-05-18 10:42:33,15.08836633,0.0001047,53.2177,286.1071,91.6874,268.4238,3.339e-05,2.44e-06,0.0,0 STARLINK-3565,1 51886U 22022AL  23138.44622373  .00000244  00000-0  33390-4 0  9996,2 51886  53.2177 286.1071 0001047  91.6874 268.4238 15.08836633 68322,6917.891,95.438,540.48,539.031,0.0
51886.0,STARLINK-3565,PAYLOAD,2023-05-18 20:14:52,15.08843066,9.15e-05,53.2168,284.3225,88.2648,271.8449,8.333e-05,1.039e-05,0.0,0 STARLINK-3565,1 51886U 22022AL  23138.84365803  .00001039  00000-0  83330-4 0  9994,2 51886  53.2168 284.3225 0000915  88.2648 271.8449 15.08843066 68383,6917.871,95.437,540.369,539.103,0.0
51886.0,STARLINK-3565,PAYLOAD,2023-05-19 18:30:16,15.08842601,0.0001251,53.2183,280.1606,104.7681,255.345,8.3936e-05,1.048e-05,0.0,0 STARLINK-3565,1 51886U 22022AL  23139.77101990  .00001048  00000-0  83936-4 0  9994,2 51886  53.2183 280.1606 0001251 104.7681 255.3450 15.08842601 68521,6917.872,95.437,540.603,538.872,0.0
51886.0,STARLINK-3565,PAYLOAD,2023-05-20 02:27:11,15.08841206,9.02e-05,53.2152,278.6682,79.5784,280.531,1.7128e-05,-1.5e-07,0.0,0 STARLINK-3565,1 51886U 22022AL  23140.10222135 -.00000015  00000-0  17128-4 0  9992,2 51886  53.2152 278.6682 0000902  79.5784 280.5310 15.08841206 68578,6917.877,95.437,540.366,539.118,0.0
51886.0,STARLINK-3565,PAYLOAD,2023-05-20 08:48:45,15.0882261,0.0001041,53.2141,277.4787,92.2341,267.877,0.00034225,5.161e-05,0.0,0 STARLINK-3565,1 51886U 22022AL  23140.36718784  .00005161  00000-0  34225-3 0  9992,2 51886  53.2141 277.4787 0001041  92.2341 267.8770 15.08822610 68616,6917.934,95.439,540.519,539.078,0.0
51886.0,STARLINK-3565,PAYLOAD,2023-05-20 16:45:39,15.08858194,9.28e-05,53.2159,275.9915,93.0169,267.0929,0.00028703,4.285e-05,0.0,0 STARLINK-3565,1 51886U 22022AL  23140.69837015  .00004285  00000-0  28703-3 0  9997,2 51886  53.2159 275.9915 0000928  93.0169 267.0929 15.08858194 68660,6917.825,95.436,540.332,539.048,0.0
51886.0,STARLINK-3565,PAYLOAD,2023-05-21 08:39:31,15.08835882,9.68e-05,53.2167,273.0189,108.5686,251.5412,6.4259e-05,7.35e-06,0.0,0 STARLINK-3565,1 51886U 22022AL  23141.36078463  .00000735  00000-0  64259-4 0  9999,2 51886  53.2167 273.0189 0000968 108.5686 251.5412 15.08835882 68766,6917.893,95.438,540.428,539.088,0.0
51886.0,STARLINK-3565,PAYLOAD,2023-05-21 15:01:04,15.08832517,0.0001012,53.2165,271.8324,86.562,273.5488,6.2926e-06,-1.88e-06,0.0,0 STARLINK-3565,1 51886U 22022AL  23141.62574610 -.00000188  00000-0  62926-5 0  9996,2 51886  53.2165 271.8324 0001012  86.5620 273.5488 15.08832517 68809,6917.903,95.438,540.468,539.068,0.0
51886.0,STARLINK-3565,PAYLOAD,2023-05-22 02:08:46,15.0883717,9.63e-05,53.2168,269.751,89.6661,270.4442,7.7181e-05,9.41e-06,0.0,0 STARLINK-3565,1 51886U 22022AL  23142.08942553  .00000941  00000-0  77181-4 0  9996,2 51886  53.2168 269.7510 0000963  89.6661 270.4442 15.08837170 68871,6917.889,95.438,540.42,539.088,0.0
51886.0,STARLINK-3565,PAYLOAD,2023-05-22 14:51:50,15.08849804,0.0001081,53.2168,267.3698,95.445,264.6666,0.00011721,1.579e-05,0.0,0 STARLINK-3565,1 51886U 22022AL  23142.61933990  .00001579  00000-0  11721-3 0  9995,2 51886  53.2168 267.3698 0001081  95.4450 264.6666 15.08849804 68954,6917.85,95.437,540.463,538.968,0.0
51886.0,STARLINK-3565,PAYLOAD,2023-05-23 11:31:52,15.08835695,0.0001083,53.2164,263.5051,93.648,266.4636,0.00012871,1.761e-05,0.0,0 STARLINK-3565,1 51886U 22022AL  23143.48046882  .00001761  00000-0  12871-3 0  9996,2 51886  53.2164 263.5051 0001083  93.6480 266.4636 15.08835695 69081,6917.894,95.438,540.508,539.009,0.0
51886.0,STARLINK-3565,PAYLOAD,2023-05-23 14:42:38,15.08832969,0.0001059,53.2174,262.9111,97.5607,262.5505,0.00011446,1.534e-05,0.0,0 STARLINK-3565,1 51886U 22022AL  23143.61294907  .00001534  00000-0  11446-3 0  9999,2 51886  53.2174 262.9111 0001059  97.5607 262.5505 15.08832969 69105,6917.902,95.438,540.499,539.034,0.0
51886.0,STARLINK-3565,PAYLOAD,2023-05-24 14:33:25,15.08824239,0.0001169,53.2169,258.4485,98.8193,261.2932,0.00036643,5.546e-05,0.0,0 STARLINK-3565,1 51886U 22022AL  23144.60654774  .00005546  00000-0  36643-3 0  9994,2 51886  53.2169 258.4485 0001169  98.8193 261.2932 15.08824239 69256,6917.929,95.439,540.602,538.985,0.0
51886.0,STARLINK-3565,PAYLOAD,2023-05-25 23:56:31,15.08839359,0.0001196,53.218,252.2069,85.8753,274.2376,6.0085e-05,6.69e-06,0.0,0 STARLINK-3565,1 51886U 22022AL  23145.99758798  .00000669  00000-0  60085-4 0  9997,2 51886  53.2180 252.2069 0001196  85.8753 274.2376 15.08839359 69465,6917.882,95.438,540.575,538.92,0.0
51886.0,STARLINK-3565,PAYLOAD,2023-05-26 12:39:36,15.08840142,0.0001211,53.2179,249.8281,88.5878,271.5252,3.7993e-05,3.17e-06,0.0,0 STARLINK-3565,1 51886U 22022AL  23146.52750795  .00000317  00000-0  37993-4 0  9998,2 51886  53.2179 249.8281 0001211  88.5878 271.5252 15.08840142 69541,6917.88,95.438,540.583,538.907,0.0
51886.0,STARLINK-3565,PAYLOAD,2023-05-26 14:14:59,15.08841334,0.0001203,53.2178,249.5308,87.3114,272.8016,4.5534e-05,4.37e-06,0.0,0 STARLINK-3565,1 51886U 22022AL  23146.59374688  .00000437  00000-0  45534-4 0  9991,2 51886  53.2178 249.5308 0001203  87.3114 272.8016 15.08841334 69555,6917.876,95.437,540.574,538.909,0.0
51886.0,STARLINK-3565,PAYLOAD,2023-05-27 10:55:01,15.08821805,9.52e-05,53.2162,245.6648,87.912,272.1981,0.00024627,3.632e-05,0.0,0 STARLINK-3565,1 51886U 22022AL  23147.45487482  .00003632  00000-0  24627-3 0  9993,2 51886  53.2162 245.6648 0000952  87.9120 272.1981 15.08821805 69684,6917.936,95.439,540.46,539.142,0.0
